OTTER                   
1 62623U 25009Q   26068.72300813  .00012198  00000+0  45151-3 0  9990
2 62623  97.4065 151.3812 0003573 310.7710  49.3219 15.27809545 63722
STARLINK-34113          
1 64010U 25101S   26068.17653434  .00017990  00000+0  66188-3 0  9992
2 64010  43.0092   1.1306 0002648 277.4839  82.5712 15.27569228 46970
